STARLINK-32458          
1 61962U 24210D   26068.48005889  .00027456  00000+0  10037-2 0  9993
2 61962  42.9997 166.6667 0001136 256.8221 103.2504 15.27575869 75047
2025-155V               
1 64895U 25155V   26068.85787115  .00013705  00000+0  51002-3 0  9990
2 64895  97.4485  37.2490 0008035 152.8264 207.3397 15.27583301 65579
